{"type": "FeatureCollection", "features": [{"type": "Feature", "properties": {"norad_id": 25590, "name": "COSMOS 2361", "group": "musson", "lat": -81.32762207521468, "lon": -71.54834320457111, "alt_km": 973.9386486819949, "timestamp": "2025-12-14T09:36:23.306414+00:00", "meta": {"OBJECT_NAME": "COSMOS 2361", "OBJECT_ID": "1998-076A", "EPOCH": "2025-12-13T11:50:21.093216", "MEAN_MOTION": 13.73217612, "ECCENTRICITY": 0.00300642, "INCLINATION": 82.9339, "RA_OF_ASC_NODE": 343.529, "ARG_OF_PERICENTER": 263.4152, "MEAN_ANOMALY": 210.3865, "EPHEMERIS_TYPE": 0, "CLASSIFICATION_TYPE": "U", "NORAD_CAT_ID": 25590, "ELEMENT_SET_NO": 999, "REV_AT_EPOCH": 35121, "BSTAR": 9.3866518e-05, "MEAN_MOTION_DOT": 1.02e-06, "MEAN_MOTION_DDOT": 0}, "tle": {"line1": "1 25590U 98076A   25347.49329969  .00000102  00000+0  93867-4 0  9992", "line2": "2 25590  82.9339 343.5290 0030064 263.4152 210.3865 13.73217612351219"}}, "geometry": {"type": "Point", "coordinates": [-71.54834320457111, -81.32762207521468]}}, {"type": "Feature", "properties": {"norad_id": 26818, "name": "COSMOS 2378", "group": "musson", "lat": -6.783076050828065, "lon": -2.3522574887761922, "alt_km": 1009.7530107365346, "timestamp": "2025-12-14T09:36:23.306435+00:00", "meta": {"OBJECT_NAME": "COSMOS 2378", "OBJECT_ID": "2001-023A", "EPOCH": "2025-12-13T13:14:49.392384", "MEAN_MOTION": 13.74142086, "ECCENTRICITY": 0.00324421, "INCLINATION": 82.9272, "RA_OF_ASC_NODE": 359.1226, "ARG_OF_PERICENTER": 202.6183, "MEAN_ANOMALY": 276.345, "EPHEMERIS_TYPE": 0, "CLASSIFICATION_TYPE": "U", "NORAD_CAT_ID": 26818, "ELEMENT_SET_NO": 999, "REV_AT_EPOCH": 22934, "BSTAR": 6.6332832e-05, "MEAN_MOTION_DOT": 7.8e-07, "MEAN_MOTION_DDOT": 0}, "tle": {"line1": "1 26818U 01023A   25347.55196056  .00000078  00000+0  66333-4 0  9998", "line2": "2 26818  82.9272 359.1226 0032442 202.6183 276.3450 13.74142086229345"}}, "geometry": {"type": "Point", "coordinates": [-2.3522574887761922, -6.783076050828065]}}, {"type": "Feature", "properties": {"norad_id": 27436, "name": "COSMOS 2389", "group": "musson", "lat": -26.23729051360144, "lon": 129.25188709333966, "alt_km": 1017.0917008262322, "timestamp": "2025-12-14T09:36:23.306449+00:00", "meta": {"OBJECT_NAME": "COSMOS 2389", "OBJECT_ID": "2002-026A", "EPOCH": "2025-12-13T15:59:03.335712", "MEAN_MOTION": 13.75154753, "ECCENTRICITY": 0.00475884, "INCLINATION": 82.9504, "RA_OF_ASC_NODE": 306.2988, "ARG_OF_PERICENTER": 58.225, "MEAN_ANOMALY": 114.9064, "EPHEMERIS_TYPE": 0, "CLASSIFICATION_TYPE": "U", "NORAD_CAT_ID": 27436, "ELEMENT_SET_NO": 999, "REV_AT_EPOCH": 18161, "BSTAR": 8.1415934e-05, "MEAN_MOTION_DOT": 9.4e-07, "MEAN_MOTION_DDOT": 0}, "tle": {"line1": "1 27436U 02026A   25347.66601083  .00000094  00000+0  81416-4 0  9999", "line2": "2 27436  82.9504 306.2988 0047588  58.2250 114.9064 13.75154753181615"}}, "geometry": {"type": "Point", "coordinates": [129.25188709333966, -26.23729051360144]}}, {"type": "Feature", "properties": {"norad_id": 27818, "name": "COSMOS 2398", "group": "musson", "lat": 37.15314068005678, "lon": 86.09305034891399, "alt_km": 968.640606391501, "timestamp": "2025-12-14T09:36:23.306477+00:00", "meta": {"OBJECT_NAME": "COSMOS 2398", "OBJECT_ID": "2003-023A", "EPOCH": "2025-12-13T12:45:36.530784", "MEAN_MOTION": 13.7238587, "ECCENTRICITY": 0.00325945, "INCLINATION": 82.9484, "RA_OF_ASC_NODE": 272.1147, "ARG_OF_PERICENTER": 109.6813, "MEAN_ANOMALY": 63.5648, "EPHEMERIS_TYPE": 0, "CLASSIFICATION_TYPE": "U", "NORAD_CAT_ID": 27818, "ELEMENT_SET_NO": 999, "REV_AT_EPOCH": 12827, "BSTAR": 7.2420371e-05, "MEAN_MOTION_DOT": 8.2e-07, "MEAN_MOTION_DDOT": 0}, "tle": {"line1": "1 27818U 03023A   25347.53167281  .00000082  00000+0  72420-4 0  9996", "line2": "2 27818  82.9484 272.1147 0032594 109.6813  63.5648 13.72385870128274"}}, "geometry": {"type": "Point", "coordinates": [86.09305034891399, 37.15314068005678]}}, {"type": "Feature", "properties": {"norad_id": 28380, "name": "COSMOS 2407", "group": "musson", "lat": 0.9204590471954204, "lon": -148.22299190163483, "alt_km": 960.3474532677137, "timestamp": "2025-12-14T09:36:23.306491+00:00", "meta": {"OBJECT_NAME": "COSMOS 2407", "OBJECT_ID": "2004-028A", "EPOCH": "2025-12-13T16:26:33.230976", "MEAN_MOTION": 13.76313821, "ECCENTRICITY": 0.00402912, "INCLINATION": 82.9605, "RA_OF_ASC_NODE": 212.1928, "ARG_OF_PERICENTER": 52.2746, "MEAN_ANOMALY": 7.6789, "EPHEMERIS_TYPE": 0, "CLASSIFICATION_TYPE": "U", "NORAD_CAT_ID": 28380, "ELEMENT_SET_NO": 999, "REV_AT_EPOCH": 7436, "BSTAR": 7.1637929e-05, "MEAN_MOTION_DOT": 8.6e-07, "MEAN_MOTION_DDOT": 0}, "tle": {"line1": "1 28380U 04028A   25347.68510684  .00000086  00000+0  71638-4 0  9996", "line2": "2 28380  82.9605 212.1928 0040291  52.2746   7.6789 13.76313821 74362"}}, "geometry": {"type": "Point", "coordinates": [-148.22299190163483, 0.9204590471954204]}}, {"type": "Feature", "properties": {"norad_id": 28521, "name": "COSMOS 2414", "group": "musson", "lat": -26.01823585125511, "lon": 179.94074793016043, "alt_km": 969.9357816281008, "timestamp": "2025-12-14T09:36:23.306517+00:00", "meta": {"OBJECT_NAME": "COSMOS 2414", "OBJECT_ID": "2005-002A", "EPOCH": "2025-12-13T14:42:03.690144", "MEAN_MOTION": 13.87903003, "ECCENTRICITY": 0.00409439, "INCLINATION": 82.949, "RA_OF_ASC_NODE": 184, "ARG_OF_PERICENTER": 137.2282, "MEAN_ANOMALY": 223.208, "EPHEMERIS_TYPE": 0, "CLASSIFICATION_TYPE": "U", "NORAD_CAT_ID": 28521, "ELEMENT_SET_NO": 999, "REV_AT_EPOCH": 5807, "BSTAR": 7.400472e-05, "MEAN_MOTION_DOT": 1.05e-06, "MEAN_MOTION_DDOT": 0}, "tle": {"line1": "1 28521U 05002A   25347.61254271  .00000105  00000+0  74005-4 0  9999", "line2": "2 28521  82.9490 184.0000 0040943 137.2282 223.2080 13.87903003 58071"}}, "geometry": {"type": "Point", "coordinates": [179.94074793016043, -26.01823585125511]}}, {"type": "Feature", "properties": {"norad_id": 32052, "name": "COSMOS 2429", "group": "musson", "lat": 31.52340538356578, "lon": -13.58119160655372, "alt_km": 950.4705227731647, "timestamp": "2025-12-14T09:36:23.306528+00:00", "meta": {"OBJECT_NAME": "COSMOS 2429", "OBJECT_ID": "2007-038A", "EPOCH": "2025-12-13T12:29:54.943584", "MEAN_MOTION": 13.7514944, "ECCENTRICITY": 0.0039197, "INCLINATION": 82.9804, "RA_OF_ASC_NODE": 342.7329, "ARG_OF_PERICENTER": 35.7287, "MEAN_ANOMALY": 324.6481, "EPHEMERIS_TYPE": 0, "CLASSIFICATION_TYPE": "U", "NORAD_CAT_ID": 32052, "ELEMENT_SET_NO": 999, "REV_AT_EPOCH": 91613, "BSTAR": 7.9842155e-05, "MEAN_MOTION_DOT": 9.2e-07, "MEAN_MOTION_DDOT": 0}, "tle": {"line1": "1 32052U 07038A   25347.52077481  .00000092  00000+0  79842-4 0  9999", "line2": "2 32052  82.9804 342.7329 0039197  35.7287 324.6481 13.75149440916132"}}, "geometry": {"type": "Point", "coordinates": [-13.58119160655372, 31.52340538356578]}}, {"type": "Feature", "properties": {"norad_id": 35635, "name": "COSMOS 2454", "group": "musson", "lat": 35.79472774555383, "lon": 172.501676241625, "alt_km": 913.8726161035693, "timestamp": "2025-12-14T09:36:23.306539+00:00", "meta": {"OBJECT_NAME": "COSMOS 2454", "OBJECT_ID": "2009-039A", "EPOCH": "2025-12-13T14:45:00.144000", "MEAN_MOTION": 13.89928798, "ECCENTRICITY": 0.00204152, "INCLINATION": 82.9554, "RA_OF_ASC_NODE": 167.9819, "ARG_OF_PERICENTER": 71.4373, "MEAN_ANOMALY": 355.7717, "EPHEMERIS_TYPE": 0, "CLASSIFICATION_TYPE": "U", "NORAD_CAT_ID": 35635, "ELEMENT_SET_NO": 999, "REV_AT_EPOCH": 83162, "BSTAR": 7.9346403e-05, "MEAN_MOTION_DOT": 1.14e-06, "MEAN_MOTION_DDOT": 0}, "tle": {"line1": "1 35635U 09039A   25347.61458500  .00000114  00000+0  79346-4 0  9991", "line2": "2 35635  82.9554 167.9819 0020415  71.4373 355.7717 13.89928798831624"}}, "geometry": {"type": "Point", "coordinates": [172.501676241625, 35.79472774555383]}}, {"type": "Feature", "properties": {"norad_id": 36519, "name": "COSMOS 2463", "group": "musson", "lat": -32.11622935563762, "lon": 21.04509002345462, "alt_km": 981.2971009087578, "timestamp": "2025-12-14T09:36:23.306550+00:00", "meta": {"OBJECT_NAME": "COSMOS 2463", "OBJECT_ID": "2010-017A", "EPOCH": "2025-12-13T15:03:20.925792", "MEAN_MOTION": 13.71649225, "ECCENTRICITY": 0.00347907, "INCLINATION": 82.9613, "RA_OF_ASC_NODE": 26.0605, "ARG_OF_PERICENTER": 285.5162, "MEAN_ANOMALY": 187.3134, "EPHEMERIS_TYPE": 0, "CLASSIFICATION_TYPE": "U", "NORAD_CAT_ID": 36519, "ELEMENT_SET_NO": 999, "REV_AT_EPOCH": 78249, "BSTAR": 5.228458e-05, "MEAN_MOTION_DOT": 6.2e-07, "MEAN_MOTION_DDOT": 0}, "tle": {"line1": "1 36519U 10017A   25347.62732553  .00000062  00000+0  52285-4 0  9990", "line2": "2 36519  82.9613  26.0605 0034790 285.5162 187.3134 13.71649225782493"}}, "geometry": {"type": "Point", "coordinates": [21.04509002345462, -32.11622935563762]}}]}